NORAD_CAT_ID,OBJECT_NAME,OBJECT_TYPE,EPOCH,MEAN_MOTION,ECCENTRICITY,INCLINATION,RA_OF_ASC_NODE,ARG_OF_PERICENTER,MEAN_ANOMALY,BSTAR,MEAN_MOTION_DOT,MEAN_MOTION_DDOT,TLE_LINE0,TLE_LINE1,TLE_LINE2,SEMIMAJOR_AXIS,PERIOD,APOGEE,PERIGEE,DECAYED
49408.0,STARLINK-3151,PAYLOAD,2024-07-05 10:56:31,15.08837963,0.0001193,53.2179,97.5698,91.3182,268.7947,0.00010124,1.324e-05,0.0,0 STARLINK-3151,1 49408U 21104A   24187.45591816  .00001324  00000-0  10124-3 0  9995,2 49408  53.2179  97.5698 0001193  91.3182 268.7947 15.08837963147304,6917.887,95.438,540.577,538.926,0.0
49408.0,STARLINK-3151,PAYLOAD,2024-07-05 22:04:12,15.08853486,0.0001154,53.2161,95.4823,42.7316,317.3766,0.00011405,1.528e-05,0.0,0 STARLINK-3151,1 49408U 21104A   24187.91958769  .00001528  00000-0  11405-3 0  9999,2 49408  53.2161  95.4823 0001154  42.7316 317.3766 15.08853486146271,6917.839,95.437,540.502,538.906,0.0
49408.0,STARLINK-3151,PAYLOAD,2024-07-06 04:25:44,15.08868552,0.0001211,53.2165,94.2993,80.0872,280.0257,0.0004961,7.622e-05,0.0,0 STARLINK-3151,1 49408U 21104A   24188.18453974  .00007622  00000-0  49610-3 0  9997,2 49408  53.2165  94.2993 0001211  80.0872 280.0257 15.08868552147414,6917.793,95.436,540.496,538.82,0.0
49408.0,STARLINK-3151,PAYLOAD,2024-07-06 10:47:17,15.08846533,0.0001591,53.2151,93.1056,78.7582,281.3589,0.00022455,3.288e-05,0.0,0 STARLINK-3151,1 49408U 21104A   24188.44951222  .00003288  00000-0  22455-3 0  9997,2 49408  53.2151  93.1056 0001591  78.7582 281.3589 15.08846533147451,6917.86,95.437,540.826,538.625,0.0
49408.0,STARLINK-3151,PAYLOAD,2024-07-06 21:55:00,15.08839114,0.0001712,53.218,91.0298,88.279,271.8398,3.0178e-05,1.92e-06,0.0,0 STARLINK-3151,1 49408U 21104A   24188.91319545  .00000192  00000-0  30178-4 0  9998,2 49408  53.2180  91.0298 0001712  88.2790 271.8398 15.08839114146425,6917.883,95.438,540.932,538.564,0.0
49408.0,STARLINK-3151,PAYLOAD,2024-07-07 02:41:09,15.08840319,0.0001722,53.2182,90.1377,90.1303,269.9887,4.4414e-06,-2.17e-06,0.0,0 STARLINK-3151,1 49408U 21104A   24189.11191469 -.00000217  00000-0  44414-5 0  9992,2 49408  53.2182  90.1377 0001722  90.1303 269.9887 15.08840319147553,6917.879,95.438,540.936,538.553,0.0
49408.0,STARLINK-3151,PAYLOAD,2024-07-08 10:28:52,15.08841018,0.0001705,53.2179,84.1866,91.4113,268.7074,0.00011646,1.566e-05,0.0,0 STARLINK-3151,1 49408U 21104A   24190.43671328  .00001566  00000-0  11646-3 0  9992,2 49408  53.2179  84.1866 0001705  91.4113 268.7074 15.08841018147753,6917.877,95.437,540.922,538.563,0.0
49408.0,STARLINK-3151,PAYLOAD,2024-07-08 23:11:57,15.08844004,0.0001623,53.2182,81.8091,95.9156,264.2021,0.00021488,3.134e-05,0.0,0 STARLINK-3151,1 49408U 21104A   24190.96663255  .00003134  00000-0  21488-3 0  9998,2 49408  53.2182  81.8091 0001623  95.9156 264.2021 15.08844004146734,6917.868,95.437,540.856,538.61,0.0
49408.0,STARLINK-3151,PAYLOAD,2024-07-09 10:19:38,15.08845565,0.000154,53.2166,79.7279,99.6395,260.4771,0.00020306,2.946e-05,0.0,0 STARLINK-3151,1 49408U 21104A   24191.43031068  .00002946  00000-0  20306-3 0  9990,2 49408  53.2166  79.7279 0001540  99.6395 260.4771 15.08845565146805,6917.863,95.437,540.794,538.663,0.0
49408.0,STARLINK-3151,PAYLOAD,2024-07-09 19:51:57,15.08842288,0.0001584,53.2173,77.9441,99.8558,260.2613,1.9022e-05,1.5e-07,0.0,0 STARLINK-3151,1 49408U 21104A   24191.82775191  .00000015  00000-0  19022-4 0  9994,2 49408  53.2173  77.9441 0001584  99.8558 260.2613 15.08842288147965,6917.873,95.437,540.834,538.643,0.0
49408.0,STARLINK-3151,PAYLOAD,2024-07-09 23:02:44,15.08842495,0.0001561,53.218,77.3508,94.2746,265.8425,3.4665e-06,-2.33e-06,0.0,0 STARLINK-3151,1 49408U 21104A   24191.96023249 -.00000233  00000-0  34665-5 0  9993,2 49408  53.2180  77.3508 0001561  94.2746 265.8425 15.08842495146886,6917.873,95.437,540.818,538.658,0.0
49408.0,STARLINK-3151,PAYLOAD,2024-07-10 21:18:08,15.08840989,0.0001643,53.2186,73.1878,94.6288,265.4892,6.3427e-05,7.22e-06,0.0,0 STARLINK-3151,1 49408U 21104A   24192.88759398  .00000722  00000-0  63427-4 0  9995,2 49408  53.2186  73.1878 0001643  94.6288 265.4892 15.08840989147029,6917.877,95.437,540.879,538.606,0.0
49408.0,STARLINK-3151,PAYLOAD,2024-07-11 02:04:17,15.0884631,0.0001544,53.2184,72.2943,99.6966,260.4201,3.835e-05,3.22e-06,0.0,0 STARLINK-3151,1 49408U 21104A   24193.08631031  .00000322  00000-0  38350-4 0  9994,2 49408  53.2184  72.2943 0001544  99.6966 260.4201 15.08846310148156,6917.861,95.437,540.794,538.658,0.0
49408.0,STARLINK-3151,PAYLOAD,2024-07-11 16:22:45,15.088386,0.000132,53.2173,69.617,106.2789,253.8349,8.9493e-05,1.137e-05,0.0,0 STARLINK-3151,1 49408U 21104A   24193.68247387  .00001137  00000-0  89493-4 0  9996,2 49408  53.2173  69.6170 0001320 106.2789 253.8349 15.08838600148248,6917.885,95.438,540.663,538.837,0.0
49408.0,STARLINK-3151,PAYLOAD,2024-07-12 14:38:09,15.0884583,0.0001652,53.2169,65.4603,103.6965,256.4211,0.00012828,1.754e-05,0.0,0 STARLINK-3151,1 49408U 21104A   24194.60983018  .00001754  00000-0  12828-3 0  9999,2 49408  53.2169  65.4603 0001652 103.6965 256.4211 15.08845830147286,6917.863,95.437,540.87,538.585,0.0
49408.0,STARLINK-3151,PAYLOAD,2024-07-12 20:59:42,15.08836446,0.0001644,53.2194,64.2698,103.7954,256.3222,-2.415e-05,-6.72e-06,0.0,0 STARLINK-3151,1 49408U 21104A   24194.87479492 -.00000672  00000-0 -24150-4 0  9996,2 49408  53.2194  64.2698 0001644 103.7954 256.3222 15.08836446148426,6917.891,95.438,540.894,538.619,0.0
49408.0,STARLINK-3151,PAYLOAD,2024-07-12 22:35:05,15.08839439,0.0001206,53.2181,63.972,99.5862,260.5266,5.2564e-05,5.49e-06,0.0,0 STARLINK-3151,1 49408U 21104A   24194.94103747  .00000549  00000-0  52564-4 0  9992,2 49408  53.2181  63.9720 0001206  99.5862 260.5266 15.08839439147337,6917.882,95.438,540.581,538.913,0.0
49408.0,STARLINK-3151,PAYLOAD,2024-07-13 08:07:24,15.08840854,0.0001107,53.2166,62.1835,77.5949,282.5167,4.9864e-05,5.06e-06,0.0,0 STARLINK-3151,1 49408U 21104A   24195.33847265  .00000506  00000-0  49864-4 0  9998,2 49408  53.2166  62.1835 0001107  77.5949 282.5167 15.08840854147393,6917.878,95.438,540.509,538.977,0.0
49408.0,STARLINK-3151,PAYLOAD,2024-07-13 22:25:52,15.08843466,0.0001077,53.2194,59.508,70.3154,289.7955,6.2981e-06,-1.88e-06,0.0,0 STARLINK-3151,1 49408U 21104A   24195.93463718 -.00000188  00000-0  62981-5 0  9994,2 49408  53.2194  59.5080 0001077  70.3154 289.7955 15.08843466147487,6917.87,95.437,540.48,538.99,0.0
49408.0,STARLINK-3151,PAYLOAD,2024-07-14 00:01:15,15.0884845,0.000108,53.2203,59.2107,70.0881,290.0228,5.0462e-05,5.16e-06,0.0,0 STARLINK-3151,1 49408U 21104A   24196.00087307  .00000516  00000-0  50462-4 0  9993,2 49408  53.2203  59.2107 0001080  70.0881 290.0228 15.08848450148592,6917.855,95.437,540.467,538.972,0.0
49408.0,STARLINK-3151,PAYLOAD,2024-07-14 07:58:11,15.08837936,0.0001206,53.2173,57.7266,89.5697,270.5433,0.00016214,2.293e-05,0.0,0 STARLINK-3151,1 49408U 21104A   24196.33207568  .00002293  00000-0  16214-3 0  9992,2 49408  53.2173  57.7266 0001206  89.5697 270.5433 15.08837936148641,6917.887,95.438,540.586,538.917,0.0
49408.0,STARLINK-3151,PAYLOAD,2024-07-14 22:16:39,15.08850352,0.0001321,53.2179,55.0465,92.2395,267.8749,0.00021772,3.18e-05,0.0,0 STARLINK-3151,1 49408U 21104A   24196.92823026  .00003180  00000-0  21772-3 0  9991,2 49408  53.2179  55.0465 0001321  92.2395 267.8749 15.08850352147637,6917.849,95.437,540.628,538.8,0.0
49408.0,STARLINK-3151,PAYLOAD,2024-07-15 07:48:58,15.08844058,0.0001368,53.219,53.2661,79.4206,280.694,0.00012613,1.72e-05,0.0,0 STARLINK-3151,1 49408U 21104A   24197.32567378  .00001720  00000-0  12613-3 0  9993,2 49408  53.2190  53.2661 0001368  79.4206 280.6940 15.08844058148797,6917.868,95.437,540.679,538.787,0.0
49408.0,STARLINK-3151,PAYLOAD,2024-07-15 20:32:03,15.08837458,0.0001356,53.2178,50.8819,98.3324,261.7822,4.1395e-06,-2.22e-06,0.0,0 STARLINK-3151,1 49408U 21104A   24197.85559733 -.00000222  00000-0  41395-5 0  9995,2 49408  53.2178  50.8819 0001356  98.3324 261.7822 15.08837458148873,6917.888,95.438,540.691,538.815,0.0
49408.0,STARLINK-3151,PAYLOAD,2024-07-16 07:39:45,15.08843413,0.0001423,53.2193,48.8008,96.6729,263.4425,7.2346e-05,8.64e-06,0.0,0 STARLINK-3151,1 49408U 21104A   24198.31927551  .00000864  00000-0  72346-4 0  9994,2 49408  53.2193  48.8008 0001423  96.6729 263.4425 15.08843413147844,6917.87,95.437,540.719,538.751,0.0
49408.0,STARLINK-3151,PAYLOAD,2024-07-16 20:22:49,15.08853309,0.0001491,53.2185,46.4212,98.4912,261.6249,0.00011863,1.601e-05,0.0,0 STARLINK-3151,1 49408U 21104A   24198.84918965  .00001601  00000-0  11863-3 0  9997,2 49408  53.2185  46.4212 0001491  98.4912 261.6249 15.08853309149026,6917.84,95.437,540.736,538.673,0.0
49408.0,STARLINK-3151,PAYLOAD,2024-07-16 23:33:36,15.08857332,0.0001534,53.219,45.8258,99.4364,260.6801,0.00018827,2.711e-05,0.0,0 STARLINK-3151,1 49408U 21104A   24198.98166707  .00002711  00000-0  18827-3 0  9991,2 49408  53.2190  45.8258 0001534  99.4364 260.6801 15.08857332147947,6917.827,95.436,540.754,538.631,0.0
49408.0,STARLINK-3151,PAYLOAD,2024-07-17 20:13:38,15.08837521,0.0001476,53.2184,41.962,97.6286,262.4874,9.3727e-05,1.204e-05,0.0,0 STARLINK-3151,1 49408U 21104A   24199.84280130  .00001204  00000-0  93727-4 0  9993,2 49408  53.2184  41.9620 0001476  97.6286 262.4874 15.08837521149173,6917.888,95.438,540.774,538.732,0.0
49408.0,STARLINK-3151,PAYLOAD,2024-07-17 23:24:24,15.08838522,0.0001448,53.2186,41.3676,91.4671,268.6487,0.00011792,1.589e-05,0.0,0 STARLINK-3151,1 49408U 21104A   24199.97528180  .00001589  00000-0  11792-3 0  9994,2 49408  53.2186  41.3676 0001448  91.4671 268.6487 15.08838522148099,6917.885,95.438,540.752,538.748,0.0
49408.0,STARLINK-3151,PAYLOAD,2024-07-18 20:04:24,15.08850993,0.0001415,53.2188,37.5022,95.578,264.5374,0.00044134,6.745e-05,0.0,0 STARLINK-3151,1 49408U 21104A   24200.83639931  .00006745  00000-0  44134-3 0  9994,2 49408  53.2188  37.5022 0001415  95.5780 264.5374 15.08850993148224,6917.847,95.437,540.691,538.733,0.0
